{"fetched_at":"2026-07-14T17:40:25.184Z","source":"https://celestrak.org/NORAD/elements/gp.php?GROUP=planet&FORMAT=JSON","constellation":"superdove","records":[{"OBJECT_NAME":"FLOCK 4H-34","OBJECT_ID":"2025-276BZ","EPOCH":"2026-07-14T03:56:54.847680","CLASSIFICATION_TYPE":"U","MEAN_MOTION":15.20830336,"ECCENTRICITY":0.0002446,"INCLINATION":97.4235,"RA_OF_ASC_NODE":268.5918,"ARG_OF_PERICENTER":171.9579,"MEAN_ANOMALY":188.1696,"EPHEMERIS_TYPE":0,"NORAD_CAT_ID":66737,"ELEMENT_SET_NO":999,"REV_AT_EPOCH":3378,"BSTAR":0.00018968,"MEAN_MOTION_DOT":0.00004116,"MEAN_MOTION_DDOT":0},{"OBJECT_NAME":"FLOCK 4H-35","OBJECT_ID":"2025-276CA","EPOCH":"2026-07-14T03:22:05.955744","CLASSIFICATION_TYPE":"U","MEAN_MOTION":15.20946875,"ECCENTRICITY":0.0002436,"INCLINATION":97.4195,"RA_OF_ASC_NODE":268.5061,"ARG_OF_PERICENTER":155.4685,"MEAN_ANOMALY":204.6667,"EPHEMERIS_TYPE":0,"NORAD_CAT_ID":66738,"ELEMENT_SET_NO":999,"REV_AT_EPOCH":3382,"BSTAR":0.00019177,"MEAN_MOTION_DOT":0.00004177,"MEAN_MOTION_DDOT":0},{"OBJECT_NAME":"FLOCK 4H-36","OBJECT_ID":"2025-276CB","EPOCH":"2026-07-14T04:17:21.960960","CLASSIFICATION_TYPE":"U","MEAN_MOTION":15.20710533,"ECCENTRICITY":0.0002379,"INCLINATION":97.4242,"RA_OF_ASC_NODE":268.5989,"ARG_OF_PERICENTER":187.4649,"MEAN_ANOMALY":172.6551,"EPHEMERIS_TYPE":0,"NORAD_CAT_ID":66739,"ELEMENT_SET_NO":999,"REV_AT_EPOCH":3453,"BSTAR":0.0001735,"MEAN_MOTION_DOT":0.00003746,"MEAN_MOTION_DDOT":0}]}
