FLOCK 4H-34             
1 66737U 25276BZ  26195.16452370  .00004116  00000+0  18968-3 0  9998
2 66737  97.4235 268.5918 0002446 171.9579 188.1696 15.20830336 33786
FLOCK 4H-35             
1 66738U 25276CA  26195.14034671  .00004177  00000+0  19177-3 0  9997
2 66738  97.4195 268.5061 0002436 155.4685 204.6667 15.20946875 33828
FLOCK 4H-36             
1 66739U 25276CB  26195.17872640  .00003746  00000+0  17350-3 0  9999
2 66739  97.4242 268.5989 0002379 187.4649 172.6551 15.20710533 34537
